[{
	"street": "636 Colonial Deer Villas",
	"city": "Cordova",
	"state": "MI",
	"zip": "49721-5067"
},

{
	"street": "3462 Quiet Acres",
	"city": "Spencerburg",
	"state": "WY",
	"zip": "82647-1405"
},

{
	"street": "1565 Round Lookout",
	"city": "Hallton",
	"state": "DE",
	"zip": "19986-4944"
},

{
	"street": "9600 Old Square",
	"city": "Tonto Estate",
	"state": "WI",
	"zip": "54287-5065"
},

{
	"street": "1908 Fallen Cider Trail",
	"city": "Lexsy",
	"state": "MS",
	"zip": "38725-6829"
},

{
	"street": "651 Merry Gate Vale",
	"city": "Dongola",
	"state": "WA",
	"zip": "98954-5729"
},

{
	"street": "2781 Sleepy Trace",
	"city": "Cooperdale",
	"state": "GA",
	"zip": "39827-4587"
},

{
	"street": "3991 Iron Pony Turnabout",
	"city": "Georgetown",
	"state": "SD",
	"zip": "57352-4440"
},

{
	"street": "9391 Quaking End",
	"city": "Ventero",
	"state": "GA",
	"zip": "39813-7908"
},

{
	"street": "9004 Blue Panda Carrefour",
	"city": "Josselet",
	"state": "MO",
	"zip": "65898-9020"
},

{
	"street": "2986 Broad Robin Grounds",
	"city": "Portales",
	"state": "AK",
	"zip": "99711-2263"
},

{
	"street": "9040 Lazy Round",
	"city": "Royal Pines Estates",
	"state": "NY",
	"zip": "13997-7460"
},

{
	"street": "2468 Pleasant Goose Mount",
	"city": "Gilberts Corner",
	"state": "DE",
	"zip": "19703-5880"
},

{
	"street": "8013 Cinder Valley",
	"city": "Koshkonong Manor",
	"state": "NM",
	"zip": "87094-3872"
},

{
	"street": "5273 Silent Dale",
	"city": "Dog Crossing",
	"state": "RI",
	"zip": "02959-8529"
},

{
	"street": "8870 Stony Farm",
	"city": "Murchison",
	"state": "NE",
	"zip": "68876-9374"
},

{
	"street": "7158 Sunny Centre",
	"city": "Vacherie",
	"state": "MA",
	"zip": "01443-1963"
},

{
	"street": "7830 Umber Link",
	"city": "Coquina Harbor",
	"state": "ID",
	"zip": "83273-4896"
},

{
	"street": "8662 Clear Timber Edge",
	"city": "Rex",
	"state": "IN",
	"zip": "46781-8818"
},

{
	"street": "8054 Burning Glen",
	"city": "Ross",
	"state": "NJ",
	"zip": "08870-7120"
},

{
	"street": "4928 Crystal Woods",
	"city": "North Palm Beach",
	"state": "SD",
	"zip": "57615-9690"
},

{
	"street": "9665 Heather Crossing",
	"city": "Meadowvale",
	"state": "MD",
	"zip": "21887-3898"
},

{
	"street": "688 Noble Shadow Meadow",
	"city": "Reese",
	"state": "MI",
	"zip": "48731-8189"
},

{
	"street": "4719 Shady Oak Pathway",
	"city": "Royalton",
	"state": "IA",
	"zip": "52803-6415"
},

{
	"street": "9361 Harvest Via",
	"city": "Lakeside",
	"state": "MT",
	"zip": "59704-9554"
},

{
	"street": "1495 Foggy Line",
	"city": "Lindcove",
	"state": "IA",
	"zip": "51029-4713"
},

{
	"street": "2949 Cozy Rise",
	"city": "Maplewood",
	"state": "MD",
	"zip": "20957-0113"
},

{
	"street": "4455 Silver Rise Alley",
	"city": "Popple",
	"state": "AL",
	"zip": "35883-3804"
},

{
	"street": "432 Easy Dale Wynd",
	"city": "Sandy Point",
	"state": "LA",
	"zip": "70226-2685"
},

{
	"street": "9399 Grand Pike",
	"city": "Quincy",
	"state": "MT",
	"zip": "59144-2712"
},

{
	"street": "9203 Dusty River Subdivision",
	"city": "Upson",
	"state": "IA",
	"zip": "51822-0857"
},

{
	"street": "1613 Golden Autoroute",
	"city": "Brownfields",
	"state": "AL",
	"zip": "35326-5933"
},

{
	"street": "602 Red Hills Maze",
	"city": "Norfork",
	"state": "SD",
	"zip": "57735-5133"
},

{
	"street": "5084 Bright Brook Drive",
	"city": "Lyndalia",
	"state": "NV",
	"zip": "89532-6029"
},

{
	"street": "6872 Middle Downs",
	"city": "Collins",
	"state": "AR",
	"zip": "72416-5917"
},

{
	"street": "9834 Misty Nectar Towers",
	"city": "Afeman",
	"state": "CT",
	"zip": "06337-7059"
},

{
	"street": "1844 Emerald Jetty",
	"city": "Wimauma",
	"state": "NY",
	"zip": "10541-9975"
},

{
	"street": "9509 Jagged Mews",
	"city": "Valdasta",
	"state": "NH",
	"zip": "03629-8548"
},

{
	"street": "3158 Hazy Bluff By-pass",
	"city": "Willits",
	"state": "NC",
	"zip": "27141-2597"
},

{
	"street": "2611 Rocky Heights",
	"city": "Appeal",
	"state": "TX",
	"zip": "77088-1748"
},

{
	"street": "7951 Dewy Concession",
	"city": "Saguache",
	"state": "AR",
	"zip": "72061-1410"
},

{
	"street": "4866 Wishing Branch Row",
	"city": "Nakina",
	"state": "NC",
	"zip": "28140-0249"
},

{
	"street": "4640 Gentle Way",
	"city": "Rice Hill",
	"state": "KY",
	"zip": "41653-7831"
},

{
	"street": "6315 Green Beacon Freeway",
	"city": "Valley Spring",
	"state": "ND",
	"zip": "58672-1432"
},

{
	"street": "1789 Amber Crescent",
	"city": "Kelleys Corner",
	"state": "NM",
	"zip": "88010-4710"
},

{
	"street": "776 Hidden Circuit",
	"city": "The Bluff",
	"state": "VA",
	"zip": "24511-9279"
},

{
	"street": "3984 Tawny Ledge",
	"city": "Kaylor",
	"state": "KS",
	"zip": "66874-8100"
},

{
	"street": "7353 High View",
	"city": "Saint Jo",
	"state": "NE",
	"zip": "69762-7341"
},

{
	"street": "1831 Cotton Willow Moor",
	"city": "Altona",
	"state": "CT",
	"zip": "06945-7513"
},

{
	"street": "3850 Rustic Townline",
	"city": "Logan",
	"state": "NV",
	"zip": "89843-6111"
},

{
	"street": "3099 Quaking Townline",
	"city": "Allport",
	"state": "TN",
	"zip": "38395-4439"
},

{
	"street": "1986 Silver Village",
	"city": "Somersetin",
	"state": "SD",
	"zip": "57768-4618"
},

{
	"street": "2245 Foggy Leaf Parkway",
	"city": "Burristown",
	"state": "VT",
	"zip": "05267-7633"
},

{
	"street": "7473 Round Prairie Wharf",
	"city": "Roseboro",
	"state": "LA",
	"zip": "70517-9069"
},

{
	"street": "1136 Umber Corners",
	"city": "Bliss",
	"state": "TX",
	"zip": "77799-1485"
},

{
	"street": "5488 Indian Circle",
	"city": "Fowler",
	"state": "CO",
	"zip": "80649-3894"
},

{
	"street": "4437 Merry Lagoon Alley",
	"city": "Pondside",
	"state": "DE",
	"zip": "19934-3333"
},

{
	"street": "8033 Green Hill",
	"city": "Hollywyle Park",
	"state": "FL",
	"zip": "32760-1597"
},

{
	"street": "5596 Stony Gate Extension",
	"city": "Nathan",
	"state": "MI",
	"zip": "48888-3705"
},

{
	"street": "1285 Honey Edge",
	"city": "Verde Real",
	"state": "MO",
	"zip": "63210-9839"
},

{
	"street": "9255 Hazy Bank",
	"city": "Woodchase",
	"state": "CT",
	"zip": "06713-7584"
},

{
	"street": "5391 Wishing Lake Way",
	"city": "Lavon",
	"state": "AL",
	"zip": "35654-7403"
},

{
	"street": "4199 Colonial Timber Gardens",
	"city": "Chemult",
	"state": "MI",
	"zip": "48403-1508"
},

{
	"street": "2991 Blue Pine Highlands",
	"city": "Commerce Landing",
	"state": "NC",
	"zip": "28460-8708"
},

{
	"street": "1184 Quiet Pathway",
	"city": "Du Quoin",
	"state": "CT",
	"zip": "06911-9728"
},

{
	"street": "9325 Golden Dale Arbor",
	"city": "Hickory Hill",
	"state": "GA",
	"zip": "39810-8737"
},

{
	"street": "1619 Cozy Circuit",
	"city": "Whipporwill Hollow",
	"state": "DC",
	"zip": "20022-6075"
},

{
	"street": "603 Heather Butterfly Knoll",
	"city": "Unionville",
	"state": "NY",
	"zip": "14557-1770"
},

{
	"street": "2009 Sleepy Pioneer Swale",
	"city": "Defiance",
	"state": "IN",
	"zip": "46134-5641"
},

{
	"street": "8545 Silent Acres",
	"city": "Woodville",
	"state": "ME",
	"zip": "04310-1829"
},

{
	"street": "7238 Pleasant Branch Orchard",
	"city": "Dogwood",
	"state": "MS",
	"zip": "39351-5855"
},

{
	"street": "3720 Grand Goose Expressway",
	"city": "Spring Place",
	"state": "MA",
	"zip": "02112-3072"
},

{
	"street": "133 Misty Court",
	"city": "Oquawka",
	"state": "OK",
	"zip": "73412-2899"
},

{
	"street": "1661 Fallen Run",
	"city": "Saint Charles",
	"state": "FL",
	"zip": "33606-9305"
},

{
	"street": "3430 Crystal Cove",
	"city": "Berry Hill",
	"state": "AK",
	"zip": "99638-2827"
},

{
	"street": "3896 Harvest Oak Key",
	"city": "Holy Hill",
	"state": "IN",
	"zip": "47067-8348"
},

{
	"street": "2446 Rocky Sky Line",
	"city": "Hartsboro",
	"state": "ID",
	"zip": "83752-5360"
},

{
	"street": "7366 Shady Embers Diversion",
	"city": "Trenton",
	"state": "CT",
	"zip": "06712-6865"
},

{
	"street": "8120 Jagged Mews",
	"city": "Teresita",
	"state": "TN",
	"zip": "37983-2221"
},

{
	"street": "62 Cinder Falls",
	"city": "Shofner",
	"state": "IA",
	"zip": "51770-5346"
},

{
	"street": "3672 Broad Grounds",
	"city": "Blue Ball Village",
	"state": "ME",
	"zip": "04495-8448"
},

{
	"street": "3587 Cotton Cloud Heights",
	"city": "Grimes Mill",
	"state": "IN",
	"zip": "47300-8864"
},

{
	"street": "699 Amber Corner",
	"city": "Palisades",
	"state": "OH",
	"zip": "44572-7239"
},

{
	"street": "9152 Burning Grove",
	"city": "Ridgewood Plantation",
	"state": "HI",
	"zip": "96824-5134"
},

{
	"street": "2265 Tawny Creek Walk",
	"city": "Sweets Corner",
	"state": "CA",
	"zip": "92115-7791"
},

{
	"street": "5851 Dewy Freeway",
	"city": "Astor",
	"state": "OR",
	"zip": "97519-8422"
},

{
	"street": "1732 Lazy Estates",
	"city": "Newborn",
	"state": "IN",
	"zip": "46377-1309"
},

{
	"street": "1178 Hidden River Impasse",
	"city": "Pine Run",
	"state": "NJ",
	"zip": "07339-7550"
},

{
	"street": "1325 Easy Beacon Avenue",
	"city": "Sylvan Dell",
	"state": "ND",
	"zip": "58761-8374"
},

{
	"street": "7593 Emerald End",
	"city": "Lakeshire",
	"state": "DE",
	"zip": "19713-8520"
},

{
	"street": "5784 Rustic Shadow Quay",
	"city": "Falls Mill",
	"state": "TX",
	"zip": "77918-5184"
},

{
	"street": "7439 Clear Bluff Beach",
	"city": "Easton",
	"state": "WI",
	"zip": "53743-0604"
},

{
	"street": "775 Sunny Blossom Centre",
	"city": "Cacoosing",
	"state": "OK",
	"zip": "73741-6235"
},

{
	"street": "4874 Thunder Panda Stead",
	"city": "Hazel Dell",
	"state": "MI",
	"zip": "48520-9998"
},

{
	"street": "5163 Lost Inlet",
	"city": "Stelvideo",
	"state": "DE",
	"zip": "19735-2164"
},

{
	"street": "8199 Red Deer Highway",
	"city": "Reeceville",
	"state": "MT",
	"zip": "59420-2356"
},

{
	"street": "4322 High Farms",
	"city": "Learned",
	"state": "HI",
	"zip": "96755-3591"
},

{
	"street": "4124 Old Autumn Towers",
	"city": "Mount Sinai",
	"state": "MT",
	"zip": "59228-2191"
},

{
	"street": "5975 Velvet Rabbit Square",
	"city": "Brunswick",
	"state": "MN",
	"zip": "55547-4282"
},

{
	"street": "7727 Gentle Zephyr Loop",
	"city": "Bowman",
	"state": "DE",
	"zip": "19827-5623"
}]
